LEMUR-2-AMANDA-SVANTE
1 48269U 21034B   24002.71585697  .00006798  00000-0  62207-3 0  9995
2 48269  97.6846  71.2096 0003010  31.2387 328.9012 14.95285047145598
